{
    "links": {
        "self": "http://www.neowsapp.com/rest/v1/neo/3780690?api_key=iIulBulltgU6a56xZRHN4H3l9WmuAYTsLGpBGhQ2"
    },
    "id": "3780690",
    "neo_reference_id": "3780690",
    "name": "(2017 PX26)",
    "designation": "2017 PX26",
    "nasa_jpl_url": "http://ssd.jpl.nasa.gov/sbdb.cgi?sstr=3780690",
    "absolute_magnitude_h": 24.4,
    "estimated_diameter": {
        "kilometers": {
            "estimated_diameter_min": 0.0350392641,
            "estimated_diameter_max": 0.0783501764
        },
        "meters": {
            "estimated_diameter_min": 35.0392641108,
            "estimated_diameter_max": 78.3501764334
        },
        "miles": {
            "estimated_diameter_min": 0.0217723826,
            "estimated_diameter_max": 0.0486845275
        },
        "feet": {
            "estimated_diameter_min": 114.9582192654,
            "estimated_diameter_max": 257.0543928497
        }
    },
    "is_potentially_hazardous_asteroid": false,
    "close_approach_data": [
        {
            "close_approach_date": "2015-06-03",
            "close_approach_date_full": "2015-Jun-03 16:57",
            "epoch_date_close_approach": 1433350620000,
            "relative_velocity": {
                "kilometers_per_second": "3.6981416396",
                "kilometers_per_hour": "13313.3099024313",
                "miles_per_hour": "8272.3730335412"
            },
            "miss_distance": {
                "astronomical": "1.3554987736",
                "lunar": "527.2890229304",
                "kilometers": "202779729.318172232",
                "miles": "126001481.0319995216"
            },
            "orbiting_body": "Juptr"
        },
        {
            "close_approach_date": "2017-08-17",
            "close_approach_date_full": "2017-Aug-17 06:07",
            "epoch_date_close_approach": 1502950020000,
            "relative_velocity": {
                "kilometers_per_second": "7.5007607401",
                "kilometers_per_hour": "27002.7386642554",
                "miles_per_hour": "16778.4516994647"
            },
            "miss_distance": {
                "astronomical": "0.0674954432",
                "lunar": "26.2557274048",
                "kilometers": "10097174.537425984",
                "miles": "6274093.3239832192"
            },
            "orbiting_body": "Earth"
        }
    ],
    "orbital_data": {
        "orbit_id": "4",
        "orbit_determination_date": "2018-01-18 06:53:17",
        "first_observation_date": "2017-08-15",
        "last_observation_date": "2017-09-23",
        "data_arc_in_days": 39,
        "observations_used": 21,
        "orbit_uncertainty": "7",
        "minimum_orbit_intersection": ".0623983",
        "jupiter_tisserand_invariant": "3.143",
        "epoch_osculation": "2459000.5",
        "eccentricity": ".586471727263277",
        "semi_major_axis": "2.596862713216933",
        "inclination": "5.656968111481194",
        "ascending_node_longitude": "134.9645777884558",
        "orbital_period": "1528.522770580544",
        "perihelion_distance": "1.073876152330998",
        "perihelion_argument": "188.2038795172674",
        "aphelion_distance": "4.119849274102868",
        "perihelion_time": "2459511.595129821313",
        "mean_anomaly": "239.6261002603251",
        "mean_motion": ".2355215158903189",
        "equinox": "J2000",
        "orbit_class": {
            "orbit_class_type": "AMO",
            "orbit_class_description": "Near-Earth asteroid orbits similar to that of 1221 Amor",
            "orbit_class_range": "1.017 AU < q (perihelion) < 1.3 AU"
        }
    },
    "is_sentry_object": false
}